[{"OBJECT_NAME":"STARLINK-3621","OBJECT_ID":"2022-017B","EPOCH":"2026-03-09T22:40:21.234144","MEAN_MOTION":15.08835843,"ECCENTRICITY":0.0001258,"INCLINATION":53.2196,"RA_OF_ASC_NODE":337.9738,"ARG_OF_PERICENTER":87.3423,"MEAN_ANOMALY":272.7713,"EPHEMERIS_TYPE":0,"CLASSIFICATION_TYPE":"U","NORAD_CAT_ID":51769,"ELEMENT_SET_NO":999,"REV_AT_EPOCH":22264,"BSTAR":1.2178376e-5,"MEAN_MOTION_DOT":-9.4e-7,"MEAN_MOTION_DDOT":0},{"OBJECT_NAME":"STRIX-5","OBJECT_ID":"2025-229A","EPOCH":"2026-03-09T11:44:23.455104","MEAN_MOTION":15.03509399,"ECCENTRICITY":0.00369417,"INCLINATION":41.9265,"RA_OF_ASC_NODE":119.8574,"ARG_OF_PERICENTER":120.2079,"MEAN_ANOMALY":240.2413,"EPHEMERIS_TYPE":0,"CLASSIFICATION_TYPE":"U","NORAD_CAT_ID":65971,"ELEMENT_SET_NO":999,"REV_AT_EPOCH":2196,"BSTAR":0.00044899589,"MEAN_MOTION_DOT":6.129e-5,"MEAN_MOTION_DDOT":0}]
